{
  "type": "FeatureCollection",
  "features": [
    {
      "type": "Feature",
      "properties": {
        "norad_id": 66759,
        "name": "TRANSPORTER-15 CX",
        "group": "last-30-days",
        "lat": -6.431069371059706,
        "lon": -113.3602077170618,
        "alt_km": 514.4056569379554,
        "timestamp": "2025-12-21T20:41:06.757259+00:00",
        "meta_object_name": "TRANSPORTER-15 CX",
        "meta_object_id": "2025-276CX",
        "meta_epoch": "2025-12-21T11:57:28.073376",
        "meta_mean_motion": 15.18187097,
        "meta_eccentricity": 0.00016082,
        "meta_inclination": 97.4388,
        "meta_ra_of_asc_node": 67.1261,
        "meta_arg_of_pericenter": 142.2831,
        "meta_mean_anomaly": 217.8516,
        "meta_ephemeris_type": 0,
        "meta_classification_type": "U",
        "meta_norad_cat_id": 66759,
        "meta_element_set_no": 999,
        "meta_rev_at_epoch": 345,
        "meta_bstar": 0.00042918441,
        "meta_mean_motion_dot": 8.71e-05,
        "meta_mean_motion_ddot": 0,
        "tle_line1": "1 66759U 25276CX  25355.49824159  .00008710  00000+0  42918-3 0  9999",
        "tle_line2": "2 66759  97.4388  67.1261 0001608 142.2831 217.8516 15.18187097  3452"
      },
      "geometry": {
        "type": "Point",
        "coordinates": [
          -113.3602077170618,
          -6.431069371059706
        ]
      }
    },
    {
      "type": "Feature",
      "properties": {
        "norad_id": 66760,
        "name": "TRANSPORTER-15 CY",
        "group": "last-30-days",
        "lat": -8.560405741856476,
        "lon": -113.63670200228306,
        "alt_km": 515.17660400758,
        "timestamp": "2025-12-21T20:41:06.757268+00:00",
        "meta_object_name": "TRANSPORTER-15 CY",
        "meta_object_id": "2025-276CY",
        "meta_epoch": "2025-12-21T11:56:53.896128",
        "meta_mean_motion": 15.18170606,
        "meta_eccentricity": 0.0001569,
        "meta_inclination": 97.4404,
        "meta_ra_of_asc_node": 67.1325,
        "meta_arg_of_pericenter": 116.1053,
        "meta_mean_anomaly": 244.0343,
        "meta_ephemeris_type": 0,
        "meta_classification_type": "U",
        "meta_norad_cat_id": 66760,
        "meta_element_set_no": 999,
        "meta_rev_at_epoch": 345,
        "meta_bstar": 0.00040785043,
        "meta_mean_motion_dot": 8.27e-05,
        "meta_mean_motion_ddot": 0,
        "tle_line1": "1 66760U 25276CY  25355.49784602  .00008270  00000+0  40785-3 0  9990",
        "tle_line2": "2 66760  97.4404  67.1325 0001569 116.1053 244.0343 15.18170606  3454"
      },
      "geometry": {
        "type": "Point",
        "coordinates": [
          -113.63670200228306,
          -8.560405741856476
        ]
      }
    },
    {
      "type": "Feature",
      "properties": {
        "norad_id": 66761,
        "name": "TRANSPORTER-15 CZ",
        "group": "last-30-days",
        "lat": -21.201580137060578,
        "lon": -115.41060607172619,
        "alt_km": 515.4914476786835,
        "timestamp": "2025-12-21T20:41:06.757280+00:00",
        "meta_object_name": "TRANSPORTER-15 CZ",
        "meta_object_id": "2025-276CZ",
        "meta_epoch": "2025-12-21T11:53:37.726656",
        "meta_mean_motion": 15.18435716,
        "meta_eccentricity": 0.0001911,
        "meta_inclination": 97.4404,
        "meta_ra_of_asc_node": 67.1348,
        "meta_arg_of_pericenter": 130.1972,
        "meta_mean_anomaly": 229.9429,
        "meta_ephemeris_type": 0,
        "meta_classification_type": "U",
        "meta_norad_cat_id": 66761,
        "meta_element_set_no": 999,
        "meta_rev_at_epoch": 345,
        "meta_bstar": 0.0011159421,
        "meta_mean_motion_dot": 0.00022962,
        "meta_mean_motion_ddot": 0,
        "tle_line1": "1 66761U 25276CZ  25355.49557554  .00022962  00000+0  11159-2 0  9991",
        "tle_line2": "2 66761  97.4404  67.1348 0001911 130.1972 229.9429 15.18435716  3450"
      },
      "geometry": {
        "type": "Point",
        "coordinates": [
          -115.41060607172619,
          -21.201580137060578
        ]
      }
    },
    {
      "type": "Feature",
      "properties": {
        "norad_id": 66762,
        "name": "HYDROGNSS-1",
        "group": "last-30-days",
        "lat": 59.821318307516485,
        "lon": -99.54716760396549,
        "alt_km": 508.8260371884362,
        "timestamp": "2025-12-21T20:41:06.757290+00:00",
        "meta_object_name": "HYDROGNSS-1",
        "meta_object_id": "2025-276DA",
        "meta_epoch": "2025-12-21T12:14:50.704512",
        "meta_mean_motion": 15.17290199,
        "meta_eccentricity": 9.336e-05,
        "meta_inclination": 97.4414,
        "meta_ra_of_asc_node": 67.1186,
        "meta_arg_of_pericenter": 273.2762,
        "meta_mean_anomaly": 86.8364,
        "meta_ephemeris_type": 0,
        "meta_classification_type": "U",
        "meta_norad_cat_id": 66762,
        "meta_element_set_no": 999,
        "meta_rev_at_epoch": 345,
        "meta_bstar": 0.00037462271,
        "meta_mean_motion_dot": 7.4e-05,
        "meta_mean_motion_ddot": 0,
        "tle_line1": "1 66762U 25276DA  25355.51030908  .00007400  00000+0  37462-3 0  9990",
        "tle_line2": "2 66762  97.4414  67.1186 0000933 273.2762  86.8364 15.17290199  3452"
      },
      "geometry": {
        "type": "Point",
        "coordinates": [
          -99.54716760396549,
          59.821318307516485
        ]
      }
    },
    {
      "type": "Feature",
      "properties": {
        "norad_id": 66763,
        "name": "HYDROGNSS-2",
        "group": "last-30-days",
        "lat": 49.542439752566274,
        "lon": -103.71105209149023,
        "alt_km": 509.6543015420084,
        "timestamp": "2025-12-21T20:41:06.757299+00:00",
        "meta_object_name": "HYDROGNSS-2",
        "meta_object_id": "2025-276DB",
        "meta_epoch": "2025-12-21T10:37:08.615712",
        "meta_mean_motion": 15.1741085,
        "meta_eccentricity": 0.00013898,
        "meta_inclination": 97.4419,
        "meta_ra_of_asc_node": 67.0602,
        "meta_arg_of_pericenter": 249.0291,
        "meta_mean_anomaly": 111.0795,
        "meta_ephemeris_type": 0,
        "meta_classification_type": "U",
        "meta_norad_cat_id": 66763,
        "meta_element_set_no": 999,
        "meta_rev_at_epoch": 344,
        "meta_bstar": 0.00014847818,
        "meta_mean_motion_dot": 2.901e-05,
        "meta_mean_motion_ddot": 0,
        "tle_line1": "1 66763U 25276DB  25355.44246083  .00002901  00000+0  14848-3 0  9990",
        "tle_line2": "2 66763  97.4419  67.0602 0001389 249.0291 111.0795 15.17410850  3440"
      },
      "geometry": {
        "type": "Point",
        "coordinates": [
          -103.71105209149023,
          49.542439752566274
        ]
      }
    },
    {
      "type": "Feature",
      "properties": {
        "norad_id": 66764,
        "name": "TRANSPORTER-15 DC",
        "group": "last-30-days",
        "lat": 26.843508719105458,
        "lon": -108.73093767902937,
        "alt_km": 511.00192275810514,
        "timestamp": "2025-12-21T20:41:06.757309+00:00",
        "meta_object_name": "TRANSPORTER-15 DC",
        "meta_object_id": "2025-276DC",
        "meta_epoch": "2025-12-21T10:31:11.288640",
        "meta_mean_motion": 15.17681114,
        "meta_eccentricity": 0.00019674,
        "meta_inclination": 97.4415,
        "meta_ra_of_asc_node": 67.06,
        "meta_arg_of_pericenter": 203.3782,
        "meta_mean_anomaly": 156.7363,
        "meta_ephemeris_type": 0,
        "meta_classification_type": "U",
        "meta_norad_cat_id": 66764,
        "meta_element_set_no": 999,
        "meta_rev_at_epoch": 344,
        "meta_bstar": 0.00036535898,
        "meta_mean_motion_dot": 7.296e-05,
        "meta_mean_motion_ddot": 0,
        "tle_line1": "1 66764U 25276DC  25355.43832510  .00007296  00000+0  36536-3 0  9996",
        "tle_line2": "2 66764  97.4415  67.0600 0001967 203.3782 156.7363 15.17681114  3445"
      },
      "geometry": {
        "type": "Point",
        "coordinates": [
          -108.73093767902937,
          26.843508719105458
        ]
      }
    },
    {
      "type": "Feature",
      "properties": {
        "norad_id": 66765,
        "name": "TRANSPORTER-15 DD",
        "group": "last-30-days",
        "lat": -38.35829459422196,
        "lon": -118.42841260230533,
        "alt_km": 516.4569718654011,
        "timestamp": "2025-12-21T20:41:06.757318+00:00",
        "meta_object_name": "TRANSPORTER-15 DD",
        "meta_object_id": "2025-276DD",
        "meta_epoch": "2025-12-21T11:49:08.191488",
        "meta_mean_motion": 15.18687569,
        "meta_eccentricity": 0.00017743,
        "meta_inclination": 97.4427,
        "meta_ra_of_asc_node": 67.1462,
        "meta_arg_of_pericenter": 121.6923,
        "meta_mean_anomaly": 238.4484,
        "meta_ephemeris_type": 0,
        "meta_classification_type": "U",
        "meta_norad_cat_id": 66765,
        "meta_element_set_no": 999,
        "meta_rev_at_epoch": 345,
        "meta_bstar": 0.00056092165,
        "meta_mean_motion_dot": 0.00011574,
        "meta_mean_motion_ddot": 0,
        "tle_line1": "1 66765U 25276DD  25355.49245592  .00011574  00000+0  56092-3 0  9994",
        "tle_line2": "2 66765  97.4427  67.1462 0001774 121.6923 238.4484 15.18687569  3455"
      },
      "geometry": {
        "type": "Point",
        "coordinates": [
          -118.42841260230533,
          -38.35829459422196
        ]
      }
    }
  ]
}